"{\n    \"CCSDS_OMM_VERS\": \"2.0\",\n    \"COMMENT\": \"GENERATED VIA SPACE-TRACK.ORG API\",\n    \"CREATION_DATE\": \"2025-08-30T03:38:48\",\n    \"ORIGINATOR\": \"18 SPCS\",\n    \"OBJECT_NAME\": \"GALILEO 11 (268)\",\n    \"OBJECT_ID\": \"2015-079B\",\n    \"CENTER_NAME\": \"EARTH\",\n    \"REF_FRAME\": \"TEME\",\n    \"TIME_SYSTEM\": \"UTC\",\n    \"MEAN_ELEMENT_THEORY\": \"SGP4\",\n    \"EPOCH\": \"2025-08-29T03:22:03.964224\",\n    \"MEAN_MOTION\": \"1.7047370898\",\n    \"ECCENTRICITY\": \"0.00028690018\",\n    \"INCLINATION\": \"55.644524\",\n    \"RA_OF_ASC_NODE\": \"109.27752\",\n    \"ARG_OF_PERICENTER\": \"9.0088587\",\n    \"MEAN_ANOMALY\": \"351.08495\",\n    \"EPHEMERIS_TYPE\": \"0\",\n    \"CLASSIFICATION_TYPE\": \"U\",\n    \"NORAD_CAT_ID\": \"41175\",\n    \"ELEMENT_SET_NO\": \"999\",\n    \"REV_AT_EPOCH\": \"6021\",\n    \"BSTAR\": \"0\",\n    \"MEAN_MOTION_DOT\": \"-0.000000055188\",\n    \"MEAN_MOTION_DDOT\": \"0\",\n    \"TLE_LINE0\": \"0 GALILEO 11 (268)\",\n    \"TLE_LINE1\": \"1 41175U 15079B   25241.14032366 -.00000006  00000-0  00000-0 0  9996\",\n    \"TLE_LINE2\": \"2 41175  55.6445 109.2775 0002869   9.0089 351.0850  1.70473709 60210\",\n    \"SEMIMAJOR_AXIS\": \"29600.354\",\n    \"PERIOD\": \"844.705\",\n    \"APOAPSIS\": \"23230.711\",\n    \"PERIAPSIS\": \"23213.726\",\n    \"OBJECT_TYPE\": \"PAYLOAD\",\n    \"DECAYED\": \"0\"\n}"